{"type":"FeatureCollection","features":[{"type":"Feature","properties":{"ref":"C21","source":"survey","highway":"secondary"},"geometry":{"type":"LineString","coordinates":[[34.8885992,-0.6117496],[34.8905912,-0.6031876],[34.9188751,-0.595371],[34.9374308,-0.5956273],[34.9427046,-0.5963804],[34.9452729,-0.598999],[34.9478769,-0.6040648],[34.9489057,-0.603802],[34.9559706,-0.6040844],[34.9567353,-0.603859],[34.9593121,-0.6026415]]}},{"type":"Feature","properties":{},"geometry":{"type":"LineString","coordinates":[[34.9567353,-0.603859],[34.9576829,-0.6037702]]}},{"type":"Feature","properties":{},"geometry":{"type":"LineString","coordinates":[[34.9567353,-0.603859],[34.9567691,-0.6038558],[34.9576829,-0.6037702]]}},{"type":"Feature","properties":{"highway":"residential","surface":"gravel","maxspeed":"50"},"geometry":{"type":"LineString","coordinates":[[34.9576829,-0.6037702],[34.9595628,-0.6035143],[34.9599706,-0.6033552],[34.9612045,-0.6031728],[34.9620949,-0.6026042],[34.9628245,-0.6017674],[34.9640905,-0.6014778],[34.9641871,-0.6014563]]}},{"type":"Feature","properties":{"highway":"residential","surface":"gravel","maxspeed":"50"},"geometry":{"type":"LineString","coordinates":[[34.9576829,-0.6037702],[34.9573229,-0.6038103],[34.9567691,-0.6038558]]}}]}