{"type":"FeatureCollection","features":[{"type":"Feature","properties":{"lit":"yes","name":"Saraswoti bazar to sisneri road","highway":"track","surface":"gravel","motorcar":"yes","motorcycle":"yes","motor_vehicle":"yes"},"geometry":null},{"type":"Feature","properties":{"name":"sisneri khola","waterway":"stream"},"geometry":null},{"type":"Feature","properties":{"name":"B69 Mobile Shop","shop":"mobile_phone","operator":"Bikash Gopali"},"geometry":null},{"type":"Feature","properties":{"name":"prerna tailoring and traianing centre","shop":"tailor"},"geometry":null},{"type":"Feature","properties":{"name":"prerna tailoring and traianing centre","shop":"tailor"},"geometry":null},{"type":"Feature","properties":{"name":"kedar mahat","shop":"clothes"},"geometry":null},{"type":"Feature","properties":{"name":"bajrabarahi school area","amenity":"school"},"geometry":null},{"type":"Feature","properties":{"name":"bajrabarahi school playground","leisure":"playground"},"geometry":null},{"type":"Feature","properties":{"name":"bajrabarahi secondary school","amenity":"school"},"geometry":null},{"type":"Feature","properties":{"area":"yes","name":"kot danda","historic":"yes"},"geometry":null},{"type":"Feature","properties":{"name":"mallakalin durbar","historic":"castle"},"geometry":null},{"type":"Feature","properties":{"building":"residential"},"geometry":null},{"type":"Feature","properties":{"building":"residential"},"geometry":null},{"type":"Feature","properties":{"building":"residential"},"geometry":null},{"type":"Feature","properties":{"building":"residential"},"geometry":null},{"type":"Feature","properties":{"building":"residential"},"geometry":null},{"type":"Feature","properties":{"building":"residential"},"geometry":null},{"type":"Feature","properties":{"building":"residential"},"geometry":null},{"type":"Feature","properties":{"building":"residential"},"geometry":null},{"type":"Feature","properties":{"building":"residential"},"geometry":null},{"type":"Feature","properties":{"building":"residential"},"geometry":null},{"type":"Feature","properties":{"name":"okhargaou road","highway":"track","surface":"dirt"},"geometry":null},{"type":"Feature","properties":{"name":"okhargaou road","highway":"track","surface":"dirt"},"geometry":null},{"type":"Feature","properties":{"highway":"track","surface":"gravel"},"geometry":null},{"type":"Feature","properties":{"highway":"track","surface":"gravel"},"geometry":null},{"type":"Feature","properties":{"building":"house"},"geometry":null},{"type":"Feature","properties":{"building":"residential"},"geometry":null},{"type":"Feature","properties":{"building":"residential"},"geometry":null},{"type":"Feature","properties":{"highway":"track","surface":"gravel"},"geometry":null},{"type":"Feature","properties":{"name":"chulipran road","highway":"track","surface":"gravel"},"geometry":null},{"type":"Feature","properties":{"name":"gauchel road","highway":"track","surface":"gravel"},"geometry":null},{"type":"Feature","properties":{"name":"gaukhel road","highway":"track","surface":"gravel"},"geometry":null}]}