{"type":"FeatureCollection","features":[{"type":"Feature","properties":{"name":"Sana Kisan Sahakari","name:en":"Small Farmers' Agriculture Cooperatives","building":"yes"},"geometry":null},{"type":"Feature","properties":{"highway":"track","surface":"dirt"},"geometry":null},{"type":"Feature","properties":{"highway":"track","surface":"dirt"},"geometry":null},{"type":"Feature","properties":{"highway":"track","surface":"dirt"},"geometry":null},{"type":"Feature","properties":{"highway":"track","surface":"dirt"},"geometry":null},{"type":"Feature","properties":{"building":"house"},"geometry":null},{"type":"Feature","properties":{"building":"house"},"geometry":null},{"type":"Feature","properties":{"building":"house"},"geometry":null},{"type":"Feature","properties":{"building":"house"},"geometry":null},{"type":"Feature","properties":{"building":"house"},"geometry":null},{"type":"Feature","properties":{"building":"house"},"geometry":null},{"type":"Feature","properties":{"building":"house"},"geometry":null},{"type":"Feature","properties":{"building":"house"},"geometry":null},{"type":"Feature","properties":{"building":"house"},"geometry":null},{"type":"Feature","properties":{"building":"house"},"geometry":null},{"type":"Feature","properties":{"building":"house"},"geometry":null},{"type":"Feature","properties":{"building":"house"},"geometry":null},{"type":"Feature","properties":{"building":"house"},"geometry":null},{"type":"Feature","properties":{"building":"house"},"geometry":null},{"type":"Feature","properties":{"building":"house"},"geometry":null},{"type":"Feature","properties":{"building":"house"},"geometry":null},{"type":"Feature","properties":{"building":"house"},"geometry":null},{"type":"Feature","properties":{"building":"house"},"geometry":null},{"type":"Feature","properties":{"building":"house"},"geometry":null},{"type":"Feature","properties":{"building":"house"},"geometry":null},{"type":"Feature","properties":{"building":"house"},"geometry":{"type":"LineString","coordinates":[[85.1221197,27.6511512],[85.1221948,27.6511227],[85.1221331,27.6510348],[85.1220634,27.651068],[85.1221197,27.6511512]]}},{"type":"Feature","properties":{"building":"house"},"geometry":{"type":"LineString","coordinates":[[85.1222753,27.6511061],[85.1222485,27.6510395],[85.1223879,27.6509944],[85.1224228,27.6510609],[85.1222753,27.6511061]]}},{"type":"Feature","properties":{"building":"house"},"geometry":{"type":"LineString","coordinates":[[85.1220714,27.6509302],[85.1221599,27.6508898],[85.1220822,27.6507425],[85.1220178,27.6507687],[85.1220419,27.6508328],[85.1220232,27.6508423],[85.1220714,27.6509302]]}}]}