{"type":"FeatureCollection","features":[{"type":"Feature","properties":{"highway":"secondary","tracktype":"grade1"},"geometry":null},{"type":"Feature","properties":{"highway":"secondary","tracktype":"grade1"},"geometry":null},{"type":"Feature","properties":{"name":"Kunchhal Kulekhani Sadak","highway":"secondary","surface":"asphalt"},"geometry":null},{"type":"Feature","properties":{"building":"house"},"geometry":null},{"type":"Feature","properties":{"name":"Bajrabarahi Healthpost","amenity":"hospital","operator":"community"},"geometry":null},{"type":"Feature","properties":{"building":"hospital"},"geometry":null},{"type":"Feature","properties":{"building":"hospital"},"geometry":null},{"type":"Feature","properties":{"building":"hospital"},"geometry":null},{"type":"Feature","properties":{"building":"hospital"},"geometry":null},{"type":"Feature","properties":{"building":"school"},"geometry":null},{"type":"Feature","properties":{"highway":"footway"},"geometry":null},{"type":"Feature","properties":{"highway":"track"},"geometry":null},{"type":"Feature","properties":{"name":"D.S. Furniture","shop":"furniture","building":"yes"},"geometry":null}]}