{"type":"FeatureCollection","features":[{"type":"Feature","properties":{"ref":"H02","name":"Tribhuvan Highway","source":"GPS","highway":"primary"},"geometry":null},{"type":"Feature","properties":{"ref":"H02","name":"Tribhuvan Highway","source":"GPS","highway":"primary"},"geometry":null},{"type":"Feature","properties":{"highway":"track"},"geometry":null},{"type":"Feature","properties":{"highway":"track"},"geometry":null},{"type":"Feature","properties":{"highway":"footway"},"geometry":null},{"type":"Feature","properties":{"highway":"track"},"geometry":null},{"type":"Feature","properties":{"highway":"track"},"geometry":null},{"type":"Feature","properties":{"name":"Kiwi Farm","landuse":"farmland"},"geometry":null},{"type":"Feature","properties":{"name":"Shree Ganesh Primary School","amenity":"school","operator":"Bishnu Bahadur Balami"},"geometry":null},{"type":"Feature","properties":{"highway":"path"},"geometry":null},{"type":"Feature","properties":{"building":"yes"},"geometry":null},{"type":"Feature","properties":{"building":"yes"},"geometry":null},{"type":"Feature","properties":{"building":"yes"},"geometry":null},{"type":"Feature","properties":{"building":"residential"},"geometry":{"type":"Point","coordinates":[85.1245924,27.6578216]}},{"type":"Feature","properties":{"area":"yes","name":"Botanical Garden"},"geometry":null},{"type":"Feature","properties":{"name":"Botanical Garden Way","highway":"track","surface":"gravel"},"geometry":null},{"type":"Feature","properties":{"name":"Kunchhal Goreto Bato","highway":"footway"},"geometry":null},{"type":"Feature","properties":{"building":"yes"},"geometry":null},{"type":"Feature","properties":{"building":"yes"},"geometry":null},{"type":"Feature","properties":{"building":"yes"},"geometry":null},{"type":"Feature","properties":{"building":"yes"},"geometry":null},{"type":"Feature","properties":{"building":"yes"},"geometry":null},{"type":"Feature","properties":{"building":"yes"},"geometry":null},{"type":"Feature","properties":{"building":"yes"},"geometry":null},{"type":"Feature","properties":{"building":"yes"},"geometry":null},{"type":"Feature","properties":{"building":"yes"},"geometry":null},{"type":"Feature","properties":{"building":"yes"},"geometry":null},{"type":"Feature","properties":{"building":"yes"},"geometry":null},{"type":"Feature","properties":{"building":"yes"},"geometry":null},{"type":"Feature","properties":{"building":"yes"},"geometry":null},{"type":"Feature","properties":{"building":"yes"},"geometry":null},{"type":"Feature","properties":{"building":"yes"},"geometry":null},{"type":"Feature","properties":{"building":"yes"},"geometry":null},{"type":"Feature","properties":{"building":"yes"},"geometry":null},{"type":"Feature","properties":{"building":"yes"},"geometry":null},{"type":"Feature","properties":{"building":"yes"},"geometry":null},{"type":"Feature","properties":{"building":"yes"},"geometry":null},{"type":"Feature","properties":{"building":"yes"},"geometry":null},{"type":"Feature","properties":{"building":"yes"},"geometry":null},{"type":"Feature","properties":{"building":"yes"},"geometry":null},{"type":"Feature","properties":{"building":"yes"},"geometry":null},{"type":"Feature","properties":{"building":"yes"},"geometry":null},{"type":"Feature","properties":{"building":"yes"},"geometry":null},{"type":"Feature","properties":{"building":"yes"},"geometry":null},{"type":"Feature","properties":{"building":"yes"},"geometry":null},{"type":"Feature","properties":{"building":"yes"},"geometry":{"type":"Point","coordinates":[85.1037991,27.6444334]}},{"type":"Feature","properties":{"building":"yes"},"geometry":null},{"type":"Feature","properties":{"building":"yes"},"geometry":null},{"type":"Feature","properties":{"building":"yes"},"geometry":null},{"type":"Feature","properties":{"building":"yes"},"geometry":null},{"type":"Feature","properties":{"building":"yes"},"geometry":null},{"type":"Feature","properties":{"building":"yes"},"geometry":null},{"type":"Feature","properties":{"building":"yes"},"geometry":null},{"type":"Feature","properties":{"building":"yes"},"geometry":null},{"type":"Feature","properties":{"building":"yes"},"geometry":null},{"type":"Feature","properties":{"building":"yes"},"geometry":null},{"type":"Feature","properties":{"building":"yes"},"geometry":null},{"type":"Feature","properties":{"building":"yes"},"geometry":null},{"type":"Feature","properties":{"building":"yes"},"geometry":null},{"type":"Feature","properties":{"building":"yes"},"geometry":null},{"type":"Feature","properties":{"building":"yes"},"geometry":null},{"type":"Feature","properties":{"building":"yes"},"geometry":null},{"type":"Feature","properties":{"building":"yes"},"geometry":null},{"type":"Feature","properties":{"building":"yes"},"geometry":null},{"type":"Feature","properties":{"building":"yes"},"geometry":null},{"type":"Feature","properties":{"building":"yes"},"geometry":null},{"type":"Feature","properties":{"building":"yes"},"geometry":null},{"type":"Feature","properties":{"building":"yes"},"geometry":null},{"type":"Feature","properties":{"building":"yes"},"geometry":null},{"type":"Feature","properties":{"building":"yes"},"geometry":null},{"type":"Feature","properties":{"building":"yes"},"geometry":null},{"type":"Feature","properties":{"building":"yes"},"geometry":null},{"type":"Feature","properties":{"building":"yes"},"geometry":null},{"type":"Feature","properties":{"building":"yes"},"geometry":null},{"type":"Feature","properties":{"building":"yes"},"geometry":null},{"type":"Feature","properties":{"building":"yes"},"geometry":null},{"type":"Feature","properties":{"building":"yes"},"geometry":null},{"type":"Feature","properties":{"building":"yes"},"geometry":null},{"type":"Feature","properties":{"source":"BajrabarahiFieldVisit","landuse":"forest","natural":"wood"},"geometry":null},{"type":"Feature","properties":{"source":"BajrabarahiFieldVisit"},"geometry":null},{"type":"Feature","properties":{},"geometry":null},{"type":"Feature","properties":{"building":"yes"},"geometry":{"type":"LineString","coordinates":[[85.1038007,27.6438243],[85.1038649,27.6438168],[85.1038007,27.6438243]]}},{"type":"Feature","properties":{"highway":"track"},"geometry":{"type":"Point","coordinates":[85.1139033,27.6597704]}},{"type":"Feature","properties":{"name":"Botanical Garden"},"geometry":{"type":"LineString","coordinates":[[85.1047162,27.6499569],[85.1048558,27.6495712],[85.104867,27.6494178],[85.1049563,27.6492398],[85.105014,27.6488982],[85.1051117,27.648735],[85.1052792,27.648458],[85.1053964,27.6483443],[85.1054383,27.6482726],[85.1055137,27.648238],[85.1056644,27.6481984],[85.1057566,27.6482009],[85.105901,27.6480922],[85.1061932,27.6482531],[85.1062879,27.648372],[85.1063195,27.6485679],[85.1063432,27.6487427],[85.1062642,27.6490785],[85.1060905,27.6493792],[85.1059484,27.64968],[85.1058141,27.6498828],[85.1053325,27.6498478],[85.1051193,27.6498898],[85.1048429,27.6499668],[85.1047162,27.6499569]]}},{"type":"Feature","properties":{"name":"Botanical Garden Way","highway":"track","surface":"gravel"},"geometry":{"type":"LineString","coordinates":[[85.1068658,27.6486092],[85.1067932,27.6484583],[85.1067765,27.6482729],[85.1067318,27.6481789],[85.1066592,27.6481047],[85.1067011,27.647939],[85.1067179,27.6478624],[85.1067374,27.6477684],[85.1068044,27.6476893],[85.1069216,27.6476176],[85.1070975,27.6475557],[85.1071562,27.6475186],[85.1071617,27.6474791],[85.1071394,27.6474469],[85.1070557,27.6474444],[85.1069831,27.6474271],[85.1069384,27.6474247],[85.1068463,27.6474296],[85.1067988,27.6474123],[85.1067541,27.6474123],[85.1066425,27.647489],[85.1064582,27.647672],[85.1063075,27.6478253],[85.1061232,27.6480083],[85.106006,27.6480973],[85.1058624,27.648162],[85.1058096,27.6482263]]}},{"type":"Feature","properties":{"name":"Kunchhal Goreto Bato","highway":"footway"},"geometry":{"type":"LineString","coordinates":[[85.110268,27.6441],[85.1099822,27.644034],[85.109698,27.6441179],[85.1094848,27.6443068],[85.1092716,27.6443837],[85.1091373,27.6442089],[85.108932,27.6442928],[85.1087741,27.6442648],[85.1084583,27.6443837]]}},{"type":"Feature","properties":{"name":"bajrabarahi temple way","highway":"footway"},"geometry":null},{"type":"Feature","properties":{"building":"yes"},"geometry":null},{"type":"Feature","properties":{"building":"yes"},"geometry":{"type":"LineString","coordinates":[[85.1070423,27.6451688],[85.1070318,27.645154],[85.1070751,27.6451113],[85.1070891,27.6451255],[85.1070423,27.6451688]]}},{"type":"Feature","properties":{"building":"shed"},"geometry":null},{"type":"Feature","properties":{"building":"yes"},"geometry":{"type":"LineString","coordinates":[[85.1039319,27.6442076],[85.103971,27.6440716],[85.1038984,27.6440765],[85.1038677,27.6441878],[85.1039319,27.6442076]]}},{"type":"Feature","properties":{"building":"yes"},"geometry":null},{"type":"Feature","properties":{"building":"shed"},"geometry":null},{"type":"Feature","properties":{"building":"yes"},"geometry":null},{"type":"Feature","properties":{"building":"yes"},"geometry":null},{"type":"Feature","properties":{"building":"yes"},"geometry":null},{"type":"Feature","properties":{"building":"yes"},"geometry":null},{"type":"Feature","properties":{"building":"shed"},"geometry":null},{"type":"Feature","properties":{"building":"yes"},"geometry":null},{"type":"Feature","properties":{"building":"yes"},"geometry":null},{"type":"Feature","properties":{"building":"yes"},"geometry":{"type":"LineString","coordinates":[[85.10377,27.6444238],[85.10377,27.6443609],[85.103849,27.6443854],[85.1038569,27.6444483],[85.10377,27.6444238]]}},{"type":"Feature","properties":{"building":"yes"},"geometry":null},{"type":"Feature","properties":{"building":"shed"},"geometry":null},{"type":"Feature","properties":{"building":"yes"},"geometry":{"type":"LineString","coordinates":[[85.1036834,27.6440172],[85.1039235,27.6440419],[85.1039207,27.6439702],[85.1036834,27.6439553],[85.1036834,27.6440172]]}},{"type":"Feature","properties":{"building":"yes"},"geometry":null},{"type":"Feature","properties":{"building":"yes"},"geometry":null},{"type":"Feature","properties":{"building":"yes"},"geometry":null},{"type":"Feature","properties":{"building":"yes"},"geometry":{"type":"LineString","coordinates":[[85.1046465,27.6442874],[85.1047254,27.644235],[85.1046346,27.644165],[85.1045596,27.6442178],[85.1046465,27.6442874]]}},{"type":"Feature","properties":{"building":"yes"},"geometry":{"type":"LineString","coordinates":[[85.1046465,27.6442874],[85.1047254,27.644235],[85.1046346,27.644165],[85.1045596,27.6442178],[85.104609,27.6442518],[85.1046465,27.6442874]]}},{"type":"Feature","properties":{"building":"yes"},"geometry":null},{"type":"Feature","properties":{"building":"yes"},"geometry":{"type":"LineString","coordinates":[[85.105689,27.6486601],[85.1056447,27.6486582],[85.105646,27.6487048],[85.1056879,27.6487062],[85.105689,27.6486601]]}},{"type":"Feature","properties":{"building":"yes"},"geometry":{"type":"LineString","coordinates":[[85.106221,27.645395],[85.106218,27.6452997],[85.1064075,27.645283],[85.1064134,27.645381],[85.106221,27.645395]]}},{"type":"Feature","properties":{"building":"yes"},"geometry":null},{"type":"Feature","properties":{"building":"yes"},"geometry":null},{"type":"Feature","properties":{"building":"yes"},"geometry":{"type":"LineString","coordinates":[[85.1057069,27.6483307],[85.1057111,27.6482478],[85.1057711,27.648254],[85.1057655,27.6483443],[85.1057069,27.6483307]]}},{"type":"Feature","properties":{"building":"yes"},"geometry":null},{"type":"Feature","properties":{"building":"shed"},"geometry":null},{"type":"Feature","properties":{"building":"yes"},"geometry":{"type":"LineString","coordinates":[[85.1060662,27.6451516],[85.1060662,27.6450812],[85.1061792,27.645075],[85.106196,27.6451578],[85.1060662,27.6451516]]}},{"type":"Feature","properties":{"building":"yes"},"geometry":null},{"type":"Feature","properties":{"building":"yes"},"geometry":null},{"type":"Feature","properties":{"building":"shed"},"geometry":null},{"type":"Feature","properties":{"building":"yes"},"geometry":null},{"type":"Feature","properties":{"building":"shed"},"geometry":null},{"type":"Feature","properties":{"building":"yes"},"geometry":null},{"type":"Feature","properties":{"building":"yes"},"geometry":{"type":"LineString","coordinates":[[85.1038286,27.6439281],[85.1040184,27.6439553],[85.104024,27.6438712],[85.1038453,27.6438416],[85.1038286,27.6439281]]}},{"type":"Feature","properties":{"building":"yes"},"geometry":null},{"type":"Feature","properties":{"building":"yes"},"geometry":{"type":"LineString","coordinates":[[85.1037281,27.6443312],[85.103876,27.6443337],[85.1038705,27.6442719],[85.1037365,27.6442867],[85.1037281,27.6443312]]}},{"type":"Feature","properties":{"building":"yes"},"geometry":null},{"type":"Feature","properties":{"building":"yes"},"geometry":{"type":"LineString","coordinates":[[85.1038202,27.6441705],[85.1037616,27.6441754],[85.1037504,27.6440765],[85.1038007,27.6440839],[85.1038202,27.6441705]]}},{"type":"Feature","properties":{"building":"yes"},"geometry":null},{"type":"Feature","properties":{"building":"yes"},"geometry":null},{"type":"Feature","properties":{"building":"yes"},"geometry":null},{"type":"Feature","properties":{"building":"yes"},"geometry":null},{"type":"Feature","properties":{"building":"yes"},"geometry":{"type":"LineString","coordinates":[[85.1058012,27.6494563],[85.1058368,27.6493811],[85.1058782,27.6493864],[85.1058605,27.6494668],[85.1058012,27.6494563]]}},{"type":"Feature","properties":{"building":"shed"},"geometry":null},{"type":"Feature","properties":{"building":"yes"},"geometry":{"type":"LineString","coordinates":[[85.1064322,27.6453801],[85.1064263,27.645283],[85.1065151,27.6452979],[85.1064954,27.6453818],[85.1064322,27.6453801]]}},{"type":"Feature","properties":{"building":"shed"},"geometry":null},{"type":"Feature","properties":{"building":"yes"},"geometry":null},{"type":"Feature","properties":{"building":"yes"},"geometry":null},{"type":"Feature","properties":{"building":"shed"},"geometry":null},{"type":"Feature","properties":{"building":"yes"},"geometry":{"type":"LineString","coordinates":[[85.1044214,27.6439762],[85.1045241,27.6439762],[85.1045596,27.6438328],[85.1044412,27.6438398],[85.1044214,27.6439762]]}},{"type":"Feature","properties":{"building":"yes"},"geometry":null},{"type":"Feature","properties":{"building":"yes"},"geometry":null},{"type":"Feature","properties":{"building":"yes"},"geometry":null},{"type":"Feature","properties":{"building":"yes"},"geometry":null},{"type":"Feature","properties":{"building":"shed"},"geometry":null},{"type":"Feature","properties":{"building":"yes"},"geometry":null},{"type":"Feature","properties":{"building":"yes"},"geometry":null},{"type":"Feature","properties":{"building":"yes"},"geometry":{"type":"LineString","coordinates":[[85.1065062,27.6453853],[85.1065269,27.6453067],[85.1066276,27.6453617],[85.1066365,27.6454369],[85.1065062,27.6453853]]}},{"type":"Feature","properties":{"building":"yes"},"geometry":null},{"type":"Feature","properties":{"building":"yes"},"geometry":{"type":"LineString","coordinates":[[85.1045083,27.6445427],[85.1044254,27.6445322],[85.104457,27.6443644],[85.1045675,27.6443784],[85.1045083,27.6445427]]}},{"type":"Feature","properties":{"building":"yes"},"geometry":null},{"type":"Feature","properties":{"building":"yes"},"geometry":{"type":"LineString","coordinates":[[85.103971,27.6438341],[85.1038928,27.6438193],[85.103971,27.6438341]]}},{"type":"Feature","properties":{"building":"yes"},"geometry":null},{"type":"Feature","properties":{"building":"yes"},"geometry":null},{"type":"Feature","properties":{"building":"yes"},"geometry":{"type":"LineString","coordinates":[[85.1036471,27.6441507],[85.1036443,27.6440889],[85.1037113,27.644074],[85.1037124,27.6440801],[85.1037253,27.6441556],[85.1036471,27.6441507]]}},{"type":"Feature","properties":{"building":"yes"},"geometry":null},{"type":"Feature","properties":{"building":"yes"},"geometry":{"type":"LineString","coordinates":[[85.1044846,27.6442944],[85.1045517,27.6442944],[85.1045596,27.6442178],[85.1045596,27.6442175],[85.1044728,27.6441895],[85.1044728,27.6442559],[85.1044846,27.6442944]]}},{"type":"Feature","properties":{"source":"BajrabarahiFieldVisit","landuse":"forest","natural":"wood"},"geometry":{"type":"LineString","coordinates":[[85.1024193,27.6485005],[85.1029878,27.6484585],[85.1037301,27.6479829],[85.1040301,27.6476892],[85.1037932,27.6475073],[85.1038271,27.6471773],[85.1040002,27.6471575],[85.1041998,27.6472465],[85.1041956,27.6471625],[85.1040728,27.6470314],[85.1040211,27.6468632],[85.1040421,27.6467408],[85.104056,27.6465269],[85.1040812,27.6464267],[85.1041175,27.6463637],[85.1041579,27.6463303],[85.1042501,27.6462722],[85.1043743,27.6463254],[85.1044692,27.646313],[85.1045404,27.6463216],[85.1045962,27.6462697],[85.1045791,27.6461808],[85.1045368,27.646027],[85.1045995,27.6459499],[85.1046375,27.645777],[85.1046848,27.6456406],[85.1047853,27.6455774],[85.104821,27.6455549],[85.1048487,27.6454097],[85.1048803,27.6452716],[85.1049553,27.6452314],[85.1051764,27.6452121],[85.1052751,27.6452069],[85.1053817,27.6450792],[85.10551,27.6451719],[85.1055731,27.6451702],[85.1054537,27.6450716],[85.1054547,27.6449691],[85.1054804,27.6449708],[85.1055356,27.6450355],[85.1056407,27.6450541],[85.1056738,27.64506],[85.1057191,27.6450144],[85.1058021,27.6449673],[85.1058949,27.6448712],[85.1058831,27.6448152],[85.1059462,27.644747],[85.1059719,27.6446193],[85.1060035,27.6445127],[85.106041,27.6444672],[85.1061377,27.644469],[85.1061496,27.6445879],[85.106118,27.6446631],[85.1061161,27.6447047],[85.1061121,27.6447942],[85.1060291,27.6448589],[85.1060252,27.6449341],[85.1060232,27.6450722],[85.1060509,27.6452121],[85.1060844,27.6452629],[85.106118,27.6453101],[85.1061219,27.645345],[85.1060906,27.6454422],[85.1060923,27.6454884],[85.1060884,27.6455217],[85.1061239,27.6455531],[85.1061594,27.6455636],[85.1061831,27.6455199],[85.1061496,27.6454709],[85.1061578,27.6454148],[85.1061575,27.6453783],[85.1062187,27.6454185],[85.1063055,27.6454237],[85.1063904,27.6454132],[85.1064911,27.6453958],[85.1065898,27.64545],[85.106647,27.6454919],[85.1066668,27.6454377],[85.1066391,27.645359],[85.1066056,27.6453206],[85.1065996,27.6452908],[85.1066075,27.6452576],[85.1066411,27.6452314],[85.1066687,27.6452244],[85.1067674,27.6452209],[85.1067852,27.6452576],[85.1068069,27.6452926],[85.1068602,27.6452803],[85.1069214,27.6452541],[85.1069648,27.6452524],[85.1070339,27.6451807],[85.1070774,27.6451614],[85.107103,27.6451195],[85.1070734,27.6450862],[85.1070181,27.6450565],[85.1070189,27.6450147],[85.1070458,27.6449778],[85.1070446,27.6448795],[85.1069735,27.6449127],[85.1069084,27.6449809],[85.1068418,27.6450886],[85.1068235,27.6451453],[85.106786,27.6450858],[85.1067446,27.6450264],[85.1066992,27.6449669],[85.1067228,27.6449022],[85.1067623,27.6448532],[85.1067979,27.6447798],[85.1068097,27.6446644],[85.1068946,27.644577],[85.1069953,27.644458],[85.107015,27.6443881],[85.1070426,27.6443741],[85.1071295,27.6443986],[85.1072025,27.644451],[85.1072104,27.6444108],[85.1073269,27.6444248],[85.1073861,27.6444685],[85.1075026,27.6445],[85.1075894,27.6446172],[85.1076329,27.6446521],[85.1077237,27.6446871],[85.1077138,27.6446242],[85.1076191,27.6444458],[85.1074888,27.6443514],[85.1074177,27.6442395],[85.1072874,27.6442132],[85.1071591,27.6441957],[85.1070841,27.6441538],[85.1070683,27.6440768],[85.1070387,27.6440576],[85.1069893,27.64386],[85.1080367,27.6437916],[85.1078511,27.6439805],[85.1079222,27.6442323],[85.1080169,27.6444317],[85.1080327,27.644666],[85.1080367,27.6447709],[85.1080381,27.6448545],[85.1080485,27.6449178],[85.1080801,27.6449668],[85.1081472,27.6450472],[85.1081518,27.6449643],[85.1081551,27.6449038],[85.1082459,27.6447359],[85.1082696,27.6446415],[85.1082743,27.6444101],[85.108317,27.6443058],[85.1083446,27.644019],[85.1083407,27.6438896],[85.1108513,27.6438787],[85.1107645,27.6440396],[85.1108671,27.6441935],[85.1107645,27.6443054],[85.1106145,27.6443054],[85.110268,27.6441],[85.1101644,27.6442285],[85.1101249,27.6442984],[85.1100854,27.6443753],[85.1100144,27.6444803],[85.1100538,27.6445782],[85.1102118,27.6447321],[85.1104329,27.644802],[85.1104802,27.6449209],[85.1103855,27.6451028],[85.1104723,27.6452077],[85.1105355,27.6452986],[85.1108198,27.6452287],[85.1109777,27.6451937],[85.110954,27.6452847],[85.1106776,27.6454315],[85.1105118,27.6455924],[85.1103855,27.6454385],[85.1102749,27.6455505],[85.1102512,27.6457113],[85.1101407,27.6458582],[85.1101802,27.6459981],[85.1103539,27.646138],[85.1105118,27.646117],[85.1105987,27.6460261],[85.1108987,27.6459981],[85.111033,27.646096],[85.1108513,27.6462149],[85.1108198,27.6462919],[85.110725,27.6463408],[85.1105987,27.6464248],[85.110725,27.6466206],[85.1109224,27.6465787],[85.1113014,27.6465507],[85.1114278,27.6466976],[85.1115778,27.6468515],[85.1115304,27.6471382],[85.1115304,27.647397],[85.1116646,27.6475229],[85.1118384,27.647397],[85.1121226,27.6473621],[85.1122884,27.647383],[85.1124937,27.6475229],[85.1124858,27.6476628],[85.1121621,27.6478167],[85.112091,27.6480825],[85.1122648,27.6483063],[85.1124622,27.6484182],[85.112628,27.6485651],[85.1126201,27.648712],[85.1123358,27.6485791],[85.1123358,27.6488099],[85.1121858,27.6489218],[85.1119094,27.6488169],[85.1116252,27.6488309],[85.1115936,27.6490267],[85.1115699,27.6492855],[85.1116215,27.6494018],[85.1116568,27.6494814],[85.1114909,27.6495164],[85.1112304,27.6495164],[85.1108908,27.6493765],[85.1107013,27.6492506],[85.1103302,27.6490897],[85.1099038,27.6490617],[85.1096274,27.6490897],[85.1092721,27.6491247],[85.1089563,27.6492226],[85.1083009,27.6491946],[85.1082772,27.6492715],[85.1082614,27.6493974],[85.1081588,27.6495303],[85.1078587,27.6496423],[85.1080245,27.649894],[85.1077245,27.649985],[85.1075587,27.6501039],[85.1072507,27.6501458],[85.1071086,27.6502158],[85.1071244,27.6506285],[85.1073753,27.6506841],[85.1073167,27.6508596],[85.1071296,27.650919],[85.1070431,27.6509264],[85.1069398,27.6509684],[85.1070152,27.6511415],[85.1071743,27.6511687],[85.107392,27.6512775],[85.1075428,27.6512726],[85.1077578,27.6512998],[85.1079448,27.6513394],[85.1079923,27.6512825],[85.1078778,27.6511119],[85.107928,27.6509487],[85.1080202,27.650872],[85.1082631,27.6509338],[85.1082993,27.6510154],[85.1083384,27.6511316],[85.1083217,27.6512825],[85.1083105,27.6514111],[85.1084501,27.6514952],[85.1085562,27.651688],[85.108612,27.6517968],[85.1084892,27.6518364],[85.1083009,27.6517916],[85.1081035,27.6517707],[85.1080009,27.6517637],[85.1077008,27.6517217],[85.1072705,27.6517916],[85.1070612,27.6518861],[85.1068243,27.6519595],[85.1065835,27.6519665],[85.1063032,27.6520399],[85.1063269,27.6521064],[85.1058926,27.6522463],[85.1056715,27.6521763],[85.1048819,27.6519665],[85.1043923,27.6517847],[85.1039344,27.6516867],[85.1037606,27.6514489],[85.1039502,27.6510712],[85.1036185,27.6510153],[85.1033816,27.6510153],[85.1025446,27.651365],[85.1023867,27.6518826],[85.1015655,27.6527778],[85.1012497,27.6533933],[85.1012971,27.6535892],[85.100997,27.6535612],[85.1004759,27.6541067],[85.0997968,27.6539668],[85.0992599,27.6538969],[85.0984702,27.6534912],[85.0980597,27.6530996],[85.0975069,27.652582],[85.0974911,27.6520644],[85.0973648,27.651309],[85.0976648,27.6506656],[85.0979649,27.6504278],[85.0984071,27.6503858],[85.0990388,27.6504697],[85.0993388,27.6503718],[85.099781,27.6500501],[85.0998915,27.6499382],[85.1007127,27.6495325],[85.1012181,27.6493366],[85.1017392,27.648833],[85.1024193,27.6485005]]}},{"type":"Feature","properties":{"name":"stone mine","landuse":"quarry","resource":"stone"},"geometry":null},{"type":"Feature","properties":{},"geometry":null},{"type":"Feature","properties":{},"geometry":{"type":"LineString","coordinates":[[85.106062,27.6451689],[85.1061122,27.6451689],[85.1061122,27.6452431],[85.1060732,27.6452258],[85.106062,27.6451689]]}},{"type":"Feature","properties":{},"geometry":null},{"type":"Feature","properties":{"building":"yes"},"geometry":{"type":"LineString","coordinates":[[85.1142722,27.6601051],[85.1142017,27.6601047],[85.1142029,27.6600495],[85.114273,27.6600484],[85.1142722,27.6601051]]}},{"type":"Feature","properties":{"name":"Alpine Development Bank","amenity":"bank","building":"yes"},"geometry":{"type":"LineString","coordinates":[[85.1240735,27.6495903],[85.1241317,27.6495582],[85.1240826,27.6494202],[85.1240014,27.6494369],[85.1240735,27.6495903]]}},{"type":"Feature","properties":{"name":"Janajagaran Co-operative School","amenity":"school","building":"yes"},"geometry":{"type":"LineString","coordinates":[[85.1249558,27.6498306],[85.124924,27.6497796],[85.124823,27.6495865],[85.1249044,27.6495793],[85.124898,27.6495415],[85.1248952,27.6494878],[85.1248057,27.6494865],[85.124696,27.6494827],[85.1246879,27.6495408],[85.1246903,27.6496299],[85.1246932,27.6496593],[85.1247047,27.6496795],[85.1246802,27.6497613],[85.1248043,27.6498943],[85.1249024,27.6498521],[85.1249558,27.6498306]]}},{"type":"Feature","properties":{"name":"Pacific Saving & credit Cooperative ltd.","office":"cooperative","building":"yes"},"geometry":{"type":"LineString","coordinates":[[85.1237348,27.6492167],[85.1238164,27.6492153],[85.1238144,27.6491213],[85.1237327,27.6491227],[85.1237348,27.6492167]]}},{"type":"Feature","properties":{"name":"RK Cotton Factory","landuse":"industrial"},"geometry":{"type":"LineString","coordinates":[[85.1239429,27.6492564],[85.1239531,27.6490522],[85.1240021,27.6490649],[85.1240041,27.6492564],[85.1239429,27.6492564]]}},{"type":"Feature","properties":{"building":"yes"},"geometry":{"type":"LineString","coordinates":[[85.1247652,27.6493504],[85.1248648,27.6493543],[85.1248652,27.6492998],[85.1247799,27.6493285],[85.1247652,27.6493504]]}},{"type":"Feature","properties":{"building":"yes"},"geometry":{"type":"LineString","coordinates":[[85.1228699,27.6494448],[85.122927,27.6494468],[85.1229299,27.6493803],[85.1228728,27.6493784],[85.1228699,27.6494448]]}},{"type":"Feature","properties":{"building":"yes"},"geometry":{"type":"LineString","coordinates":[[85.1248836,27.6493504],[85.1249954,27.6493548],[85.1249999,27.6492655],[85.1248942,27.6493009],[85.1248836,27.6493504]]}},{"type":"Feature","properties":{"building":"yes"},"geometry":{"type":"LineString","coordinates":[[85.1229421,27.6494564],[85.1230366,27.6494583],[85.1230376,27.6494176],[85.1229431,27.6494158],[85.1229421,27.6494564]]}},{"type":"Feature","properties":{"building":"yes"},"geometry":{"type":"LineString","coordinates":[[85.1230605,27.6494465],[85.1231551,27.6494426],[85.1231531,27.6494037],[85.1230584,27.6494076],[85.1230605,27.6494465]]}},{"type":"Feature","properties":{"building":"yes"},"geometry":{"type":"LineString","coordinates":[[85.1266909,27.6490867],[85.1267818,27.6490867],[85.1267818,27.6490369],[85.1266909,27.6490369],[85.1266909,27.6490867]]}},{"type":"Feature","properties":{"building":"yes"},"geometry":{"type":"LineString","coordinates":[[85.1266404,27.6495549],[85.1266931,27.6495434],[85.1266671,27.6495037],[85.126618,27.6495095],[85.1266404,27.6495549]]}},{"type":"Feature","properties":{"building":"yes"},"geometry":{"type":"LineString","coordinates":[[85.1236641,27.6498866],[85.1237708,27.6498644],[85.1237545,27.649803],[85.1236478,27.6498252],[85.1236641,27.6498866]]}},{"type":"Feature","properties":{"building":"yes"},"geometry":{"type":"LineString","coordinates":[[85.1249306,27.6497762],[85.1250094,27.6497438],[85.1249288,27.6495901],[85.12485,27.6496226],[85.1249306,27.6497762]]}},{"type":"Feature","properties":{"building":"yes"},"geometry":{"type":"LineString","coordinates":[[85.1238396,27.6500529],[85.1239726,27.6500398],[85.1239645,27.6499748],[85.1238315,27.6499879],[85.1238396,27.6500529]]}},{"type":"Feature","properties":{"building":"yes"},"geometry":{"type":"LineString","coordinates":[[85.1250734,27.6493513],[85.1251263,27.6493534],[85.125106,27.6492098],[85.125047,27.6492164],[85.1250734,27.6493513]]}},{"type":"Feature","properties":{"building":"yes"},"geometry":{"type":"LineString","coordinates":[[85.1250799,27.6497513],[85.1251671,27.6497206],[85.1250834,27.649534],[85.1249962,27.6495647],[85.1250799,27.6497513]]}},{"type":"Feature","properties":{"building":"yes"},"geometry":{"type":"LineString","coordinates":[[85.1251948,27.6493333],[85.1252757,27.6493325],[85.1252767,27.649271],[85.1251917,27.6492691],[85.1251948,27.6493333]]}},{"type":"Feature","properties":{"building":"yes"},"geometry":{"type":"LineString","coordinates":[[85.125556,27.6493599],[85.1257182,27.6493599],[85.1257182,27.6492695],[85.125556,27.6492695],[85.125556,27.6493599]]}},{"type":"Feature","properties":{"building":"yes"},"geometry":{"type":"LineString","coordinates":[[85.1231656,27.6494739],[85.1233512,27.6494805],[85.1233543,27.6494127],[85.1231687,27.6494062],[85.1231656,27.6494739]]}},{"type":"Feature","properties":{"building":"yes"},"geometry":{"type":"LineString","coordinates":[[85.1252856,27.6493345],[85.1253505,27.6493353],[85.1253515,27.6492694],[85.1252866,27.6492686],[85.1252856,27.6493345]]}},{"type":"Feature","properties":{"building":"yes"},"geometry":{"type":"LineString","coordinates":[[85.1259814,27.6494023],[85.1260651,27.6492768],[85.1259804,27.6492325],[85.1258967,27.649358],[85.1259814,27.6494023]]}},{"type":"Feature","properties":{"building":"yes"},"geometry":{"type":"LineString","coordinates":[[85.1229196,27.6491238],[85.1231966,27.6491417],[85.123203,27.6490647],[85.1229259,27.6490468],[85.1229196,27.6491238]]}},{"type":"Feature","properties":{"building":"yes"},"geometry":{"type":"LineString","coordinates":[[85.1258886,27.6490941],[85.1260513,27.6490837],[85.1260451,27.6490087],[85.1258824,27.6490191],[85.1258886,27.6490941]]}},{"type":"Feature","properties":{"building":"yes"},"geometry":{"type":"LineString","coordinates":[[85.1233836,27.6490725],[85.1234181,27.6490581],[85.1233704,27.6489686],[85.123336,27.648983],[85.1233836,27.6490725]]}},{"type":"Feature","properties":{"building":"yes"},"geometry":{"type":"LineString","coordinates":[[85.1233951,27.6491696],[85.1236057,27.6491468],[85.1235971,27.6490842],[85.1233865,27.649107],[85.1233951,27.6491696]]}},{"type":"Feature","properties":{"building":"yes"},"geometry":{"type":"LineString","coordinates":[[85.1233961,27.6495503],[85.1234361,27.6495516],[85.1234402,27.649454],[85.1234002,27.6494527],[85.1233961,27.6495503]]}},{"type":"Feature","properties":{"building":"yes"},"geometry":{"type":"LineString","coordinates":[[85.1226679,27.6489754],[85.1227399,27.6489761],[85.1227414,27.64887],[85.1226694,27.6488693],[85.1226679,27.6489754]]}},{"type":"Feature","properties":{"building":"yes"},"geometry":{"type":"LineString","coordinates":[[85.1234519,27.6494831],[85.1235545,27.6494811],[85.1235586,27.6494395],[85.123456,27.6494361],[85.1234519,27.6494831]]}},{"type":"Feature","properties":{"building":"yes"},"geometry":{"type":"LineString","coordinates":[[85.1261832,27.6489618],[85.1262432,27.6489596],[85.1262412,27.6489162],[85.1261811,27.6489185],[85.1261832,27.6489618]]}},{"type":"Feature","properties":{"building":"yes"},"geometry":{"type":"LineString","coordinates":[[85.1242034,27.6495826],[85.1243332,27.6495826],[85.1243332,27.6495213],[85.1242034,27.6495213],[85.1242034,27.6495826]]}},{"type":"Feature","properties":{"building":"yes"},"geometry":{"type":"LineString","coordinates":[[85.1243621,27.6495826],[85.1244544,27.6495826],[85.1244544,27.6495468],[85.1243621,27.6495468],[85.1243621,27.6495826]]}},{"type":"Feature","properties":{"building":"yes"},"geometry":{"type":"LineString","coordinates":[[85.12606,27.6490779],[85.1261699,27.6490707],[85.1261659,27.6490219],[85.1260559,27.6490291],[85.12606,27.6490779]]}},{"type":"Feature","properties":{"building":"yes"},"geometry":{"type":"LineString","coordinates":[[85.1231412,27.648629],[85.1232191,27.6486571],[85.1232549,27.6485793],[85.123177,27.6485512],[85.1231412,27.648629]]}},{"type":"Feature","properties":{"building":"yes"},"geometry":{"type":"LineString","coordinates":[[85.1228261,27.6491052],[85.1229039,27.6491029],[85.1229019,27.6490487],[85.1228241,27.649051],[85.1228261,27.6491052]]}},{"type":"Feature","properties":{"building":"yes"},"geometry":{"type":"LineString","coordinates":[[85.1261906,27.6490688],[85.1262511,27.6490612],[85.1262358,27.6489663],[85.1261753,27.6489739],[85.1261906,27.6490688]]}},{"type":"Feature","properties":{"building":"yes"},"geometry":{"type":"LineString","coordinates":[[85.1226826,27.6493976],[85.1228273,27.6494025],[85.122829,27.6493639],[85.1226843,27.6493589],[85.1226826,27.6493976]]}},{"type":"Feature","properties":{"building":"yes"},"geometry":{"type":"LineString","coordinates":[[85.1227643,27.6493976],[85.1228273,27.6494025],[85.122829,27.6493639],[85.122766,27.6493612],[85.1227643,27.6493976]]}},{"type":"Feature","properties":{"building":"yes"},"geometry":{"type":"LineString","coordinates":[[85.1254213,27.6493354],[85.1254243,27.6492641],[85.1253559,27.6492617],[85.1253528,27.6493331],[85.1254213,27.6493354]]}},{"type":"Feature","properties":{"building":"yes"},"geometry":{"type":"LineString","coordinates":[[85.1232581,27.6492297],[85.1233417,27.6492198],[85.1233359,27.6491815],[85.1232523,27.6491914],[85.1232581,27.6492297]]}},{"type":"Feature","properties":{"building":"yes"},"geometry":{"type":"LineString","coordinates":[[85.1226506,27.6485779],[85.1227587,27.6485915],[85.1227673,27.6485379],[85.1226593,27.6485242],[85.1226506,27.6485779]]}},{"type":"Feature","properties":{"building":"yes"},"geometry":{"type":"LineString","coordinates":[[85.1226078,27.6493711],[85.1226698,27.6493693],[85.1226782,27.6493209],[85.1226182,27.6493209],[85.1226078,27.6493711]]}},{"type":"Feature","properties":{"building":"yes"},"geometry":{"type":"LineString","coordinates":[[85.1235554,27.649521],[85.1236153,27.6495128],[85.1236316,27.6494314],[85.1235697,27.6494243],[85.1235554,27.649521]]}},{"type":"Feature","properties":{"building":"yes"},"geometry":{"type":"LineString","coordinates":[[85.1263451,27.6491193],[85.1264461,27.6491014],[85.1264345,27.6490503],[85.1263335,27.6490682],[85.1263451,27.6491193]]}},{"type":"Feature","properties":{"building":"yes"},"geometry":{"type":"LineString","coordinates":[[85.1236391,27.649502],[85.1238025,27.6494712],[85.1237985,27.6494224],[85.1236463,27.6494143],[85.1236391,27.649502]]}},{"type":"Feature","properties":{"building":"yes"},"geometry":{"type":"LineString","coordinates":[[85.1244673,27.6493161],[85.124583,27.6493206],[85.1245857,27.6492664],[85.12447,27.6492619],[85.1244673,27.6493161]]}},{"type":"Feature","properties":{"building":"yes"},"geometry":{"type":"LineString","coordinates":[[85.1265182,27.6490861],[85.1266654,27.6490861],[85.1266654,27.6490273],[85.1265182,27.6490273],[85.1265182,27.6490861]]}},{"type":"Feature","properties":{"building":"yes"},"geometry":{"type":"LineString","coordinates":[[85.124502,27.6495941],[85.1245924,27.6495986],[85.124591,27.649545],[85.1245006,27.649534],[85.124502,27.6495941]]}},{"type":"Feature","properties":{"building":"yes"},"geometry":{"type":"LineString","coordinates":[[85.1238629,27.6495698],[85.123967,27.6495577],[85.1239295,27.6494555],[85.1238311,27.6494446],[85.1238629,27.6495698]]}},{"type":"Feature","properties":{"building":"yes"},"geometry":{"type":"LineString","coordinates":[[85.1246011,27.6496063],[85.1246766,27.6496072],[85.1246775,27.6495457],[85.124602,27.6495448],[85.1246011,27.6496063]]}},{"type":"Feature","properties":{"building":"yes"},"geometry":{"type":"LineString","coordinates":[[85.1226782,27.6491528],[85.1227537,27.649154],[85.1227567,27.6491775],[85.122816,27.6491797],[85.1228107,27.6490116],[85.1226765,27.6490092],[85.1226782,27.6491528]]}},{"type":"Feature","properties":{"highway":"path"},"geometry":{"type":"LineString","coordinates":[[85.1146354,27.659599],[85.1146354,27.6596906],[85.1146354,27.6597297],[85.1145948,27.6596921],[85.1145914,27.6597522],[85.1145507,27.6597117],[85.1145439,27.6597462],[85.1145303,27.6597627],[85.1145015,27.6597117],[85.1144761,27.6597192],[85.114471,27.6597477],[85.1144829,27.6597792],[85.1144557,27.6597612],[85.1144489,27.6598123],[85.1144218,27.6597913],[85.1144133,27.6598258],[85.1143947,27.6598588],[85.1143879,27.6598919],[85.1143811,27.6599219],[85.1143728,27.6599354],[85.1143707,27.6599379],[85.1143627,27.6599361],[85.1143489,27.6599354],[85.1143387,27.6599519],[85.1143252,27.660024],[85.1143201,27.6600826],[85.1143048,27.6601171],[85.1142845,27.6601441],[85.1142591,27.6602117],[85.114254,27.6602613],[85.1142472,27.6602958],[85.1142133,27.6603138],[85.1141845,27.6603289],[85.1141828,27.6603769],[85.1141641,27.660416],[85.1141387,27.660431],[85.1141234,27.6605091],[85.1141268,27.6606367],[85.1141251,27.6606817],[85.1141149,27.6607103],[85.1140692,27.6608019],[85.1140319,27.660868],[85.1140369,27.6609115],[85.1140098,27.6609626],[85.1139827,27.6610001],[85.1139454,27.6611172],[85.1139318,27.6612193],[85.1139573,27.6613275],[85.1139674,27.6614131],[85.1140166,27.6614446],[85.1140522,27.6614671],[85.1140759,27.6614957],[85.1140556,27.6615767],[85.1140261,27.6616078],[85.114003,27.6616653],[85.1139725,27.6616653],[85.1139335,27.6616608],[85.113903,27.6616894],[85.11392,27.6617239],[85.1139098,27.661763],[85.1139284,27.6617975],[85.1139318,27.661814],[85.1139132,27.661835],[85.1139166,27.6618606],[85.1138827,27.6618921],[85.1138521,27.6619131],[85.1138047,27.6619386],[85.1137555,27.6619747],[85.1137725,27.6619957]]}},{"type":"Feature","properties":{"highway":"track"},"geometry":{"type":"LineString","coordinates":[[85.1118346,27.6612434],[85.1120601,27.6612899],[85.112177,27.6612734],[85.1122788,27.6612554],[85.1124568,27.6612614],[85.1125568,27.6612509],[85.1126738,27.6611773],[85.1127891,27.6610662],[85.1128857,27.6609235],[85.1129383,27.6608785],[85.1130129,27.6608589],[85.1131011,27.660877],[85.1132469,27.6608334],[85.1133554,27.6607914],[85.1134571,27.6607433],[85.1135419,27.6606502],[85.1136148,27.6604595],[85.1136775,27.6602733],[85.1136826,27.6601967],[85.1137233,27.6600706],[85.1138064,27.6600045],[85.1138471,27.659979],[85.1139234,27.6599144],[85.1139539,27.6598303],[85.1139033,27.6597704],[85.1138674,27.6597072],[85.113903,27.6595765],[85.1139607,27.6594369],[85.1139607,27.6593347],[85.1139844,27.6592747],[85.1140709,27.6592131],[85.1142133,27.6590794],[85.1143031,27.6589353],[85.1143625,27.6588302],[85.114332,27.6587235],[85.114237,27.6586304],[85.1141607,27.6585088],[85.1141251,27.6583797],[85.1140742,27.658267],[85.1140454,27.6581454],[85.1140895,27.6580613],[85.1141488,27.6579997],[85.1142285,27.6578961],[85.1141251,27.657806]]}},{"type":"Feature","properties":{"building":"yes"},"geometry":{"type":"LineString","coordinates":[[85.1224236,27.6490313],[85.1225113,27.6490702],[85.1225476,27.6490059],[85.1224599,27.648967],[85.1224236,27.6490313]]}},{"type":"Feature","properties":{"building":"yes"},"geometry":{"type":"LineString","coordinates":[[85.1222636,27.6499818],[85.1223452,27.6499861],[85.1223515,27.6498937],[85.1222699,27.6498894],[85.1222636,27.6499818]]}},{"type":"Feature","properties":{"building":"yes"},"geometry":{"type":"LineString","coordinates":[[85.1220524,27.6500041],[85.1221067,27.6500233],[85.1221117,27.6499754],[85.12206,27.6499595],[85.1220524,27.6500041]]}},{"type":"Feature","properties":{"building":"yes"},"geometry":{"type":"LineString","coordinates":[[85.1226614,27.649469],[85.1227135,27.6494764],[85.1227249,27.649414],[85.1226728,27.6494066],[85.1226614,27.649469]]}},{"type":"Feature","properties":{"building":"yes"},"geometry":{"type":"LineString","coordinates":[[85.1221539,27.6489254],[85.1222077,27.6489342],[85.1222281,27.6488366],[85.1221743,27.6488278],[85.1221539,27.6489254]]}},{"type":"Feature","properties":{"building":"yes"},"geometry":{"type":"LineString","coordinates":[[85.1230964,27.6495146],[85.1231476,27.6495127],[85.1231451,27.6494614],[85.1230939,27.6494634],[85.1230964,27.6495146]]}},{"type":"Feature","properties":{"building":"yes"},"geometry":{"type":"LineString","coordinates":[[85.1221233,27.6487934],[85.1222192,27.6488242],[85.1222621,27.6487573],[85.1221723,27.6487139],[85.1221233,27.6487934]]}},{"type":"Feature","properties":{"building":"yes"},"geometry":{"type":"LineString","coordinates":[[85.1226772,27.6493927],[85.1227555,27.6493976],[85.1227605,27.649362],[85.122681,27.6493571],[85.1226772,27.6493927]]}},{"type":"Feature","properties":{"building":"yes"},"geometry":{"type":"LineString","coordinates":[[85.1223315,27.6497479],[85.1224087,27.6497468],[85.1224074,27.6496822],[85.1223302,27.6496834],[85.1223315,27.6497479]]}},{"type":"Feature","properties":{"building":"yes"},"geometry":{"type":"LineString","coordinates":[[85.1222205,27.648922],[85.1223042,27.6489681],[85.1223471,27.648907],[85.1222634,27.648861],[85.1222205,27.648922]]}},{"type":"Feature","properties":{"building":"yes"},"geometry":{"type":"LineString","coordinates":[[85.1223175,27.6489753],[85.1224052,27.6490232],[85.1224458,27.6489649],[85.1223581,27.648917],[85.1223175,27.6489753]]}},{"type":"Feature","properties":{"highway":"footway"},"geometry":null},{"type":"Feature","properties":{"fixme":"foodmill","building":"yes"},"geometry":{"type":"Point","coordinates":[85.1060732,27.6452258]}},{"type":"Feature","properties":{"name":"temple entrance"},"geometry":{"type":"Point","coordinates":[85.1190926,27.6421365]}},{"type":"Feature","properties":{"name":"BRJ fast food","amenity":"fast_food"},"geometry":{"type":"Point","coordinates":[85.1229409,27.6491109]}},{"type":"Feature","properties":{"name":"BRJ kirana store","shop":"convenience"},"geometry":{"type":"Point","coordinates":[85.1229888,27.6491136]}},{"type":"Feature","properties":{"name":"Bajrabarahi Books and Stationary","shop":"stationery"},"geometry":{"type":"Point","coordinates":[85.1237785,27.6494335]}},{"type":"Feature","properties":{"name":"Bajrabarahi Hardware","shop":"hardware"},"geometry":{"type":"Point","coordinates":[85.1236642,27.6494272]}},{"type":"Feature","properties":{"name":"Balami Medical Hall","amenity":"pharmacy","dispensing":"yes"},"geometry":{"type":"Point","coordinates":[85.1230296,27.6491172]}},{"type":"Feature","properties":{"name":"Fancy Store","shop":"shoes"},"geometry":{"type":"Point","coordinates":[85.1237969,27.6491985]}},{"type":"Feature","properties":{"name":"Fashion Digital Photo Studio","craft":"photographic_laboratory"},"geometry":{"type":"Point","coordinates":[85.1230694,27.6491199]}},{"type":"Feature","properties":{"name":"Frens Egle Tailor","shop":"tailor"},"geometry":{"type":"Point","coordinates":[85.1237265,27.6494299]}},{"type":"Feature","properties":{"name":"Kunchhal Krishi Sahakari","office":"cooperative"},"geometry":{"type":"Point","coordinates":[85.1236132,27.6494389]}},{"type":"Feature","properties":{"name":"Newari khaja ghar","amenity":"fast_food"},"geometry":{"type":"Point","coordinates":[85.1231643,27.6491262]}},{"type":"Feature","properties":{"name":"Sunaulo Community Educational Center","amenity":"library"},"geometry":{"type":"Point","coordinates":[85.1231112,27.6491208]}},{"type":"Feature","properties":{"name":"Upreti Chiya Center","amenity":"cafe"},"geometry":{"type":"Point","coordinates":[85.1237479,27.6491976]}},{"type":"Feature","properties":{"amenity":"agrocentre"},"geometry":{"type":"Point","coordinates":[85.1236979,27.6494272]}},{"type":"Feature","properties":{"name":"B & P auto workshop","shop":"car_repair","operator":"Pradip Bhatta"},"geometry":{"type":"Point","coordinates":[85.123082,27.6494206]}},{"type":"Feature","properties":{"name":"B69 Mobile Shop","shop":"mobile_phone","operator":"Bikash Gopali"},"geometry":{"type":"Point","coordinates":[85.1224352,27.6494291]}},{"type":"Feature","properties":{"name":"Bajrabarahi Computer Center","office":"educational_institution"},"geometry":{"type":"Point","coordinates":[85.1230535,27.6491224]}},{"type":"Feature","properties":{"name":"Bhatta Fuel Center","amenity":"fuel","operator":"Dilip Bhatta"},"geometry":{"type":"Point","coordinates":[85.123131,27.6494161]}},{"type":"Feature","properties":{"name":"Bhatta shopping center","shop":"shoes"},"geometry":{"type":"Point","coordinates":[85.1228972,27.6493916]}},{"type":"Feature","properties":{"name":"Pradip fast food center &resturant","amenity":"fast_food"},"geometry":{"type":"Point","coordinates":[85.1229651,27.6494284]}},{"type":"Feature","properties":{"name":"Subedi Agro Center","amenity":"agrocentre","operator":"Madhav Prasad Subedi"},"geometry":{"type":"Point","coordinates":[85.1230242,27.6494317]}},{"type":"Feature","properties":{"name":"Subedi Mobile Center","shop":"mobile_phone"},"geometry":{"type":"Point","coordinates":[85.1230091,27.6494295]}},{"type":"Feature","properties":{"name":"aswi beauty parlour","shop":"beauty"},"geometry":{"type":"Point","coordinates":[85.1226827,27.6489572]}},{"type":"Feature","properties":{"name":"gopali kirana store","shop":"convenience"},"geometry":{"type":"Point","coordinates":[85.1227011,27.6491362]}},{"type":"Feature","properties":{"name":"joshi auto works","shop":"car_repair"},"geometry":{"type":"Point","coordinates":[85.1227776,27.6491687]}},{"type":"Feature","properties":{"name":"joshi kirana store","shop":"convenience"},"geometry":{"type":"Point","coordinates":[85.1228817,27.6490937]}},{"type":"Feature","properties":{"name":"joshi newari khaja ghar","amenity":"fast_food"},"geometry":{"type":"Point","coordinates":[85.1228031,27.649138]}},{"type":"Feature","properties":{"name":"joshi shoping center","shop":"shoes"},"geometry":{"type":"Point","coordinates":[85.1232002,27.6494266]}},{"type":"Feature","properties":{"name":"js electronices & mobile center","shop":"mobile_phone"},"geometry":{"type":"Point","coordinates":[85.1227878,27.649376]}},{"type":"Feature","properties":{"name":"kanhaiya hair dresser","shop":"hairdresser"},"geometry":{"type":"Point","coordinates":[85.1227413,27.6493716]}},{"type":"Feature","properties":{"name":"madan tailoring center","shop":"tailor"},"geometry":{"type":"Point","coordinates":[85.1226171,27.6490172]}},{"type":"Feature","properties":{"name":"narayani bus counter","amenity":"vending_machine","vending":"public_transport_tickets"},"geometry":{"type":"Point","coordinates":[85.1228429,27.6490946]}},{"type":"Feature","properties":{"shop":"convenience"},"geometry":{"type":"Point","coordinates":[85.1225635,27.6493155]}},{"type":"Feature","properties":{"shop":"butcher","source":"BajrabarahiFieldVisit","butcher":"kumar fresh house"},"geometry":{"type":"Point","coordinates":[85.1226614,27.6493354]}},{"type":"Feature","properties":{"name":"palung multi purpose cooprative ltd.","office":"cooperative"},"geometry":{"type":"Point","coordinates":[85.1227368,27.6491353]}},{"type":"Feature","properties":{"name":"rb tailors","shop":"tailor"},"geometry":{"type":"Point","coordinates":[85.1226325,27.6493331]}},{"type":"Feature","properties":{"name":"shoes center","shop":"shoes"},"geometry":{"type":"Point","coordinates":[85.122609,27.6489639]}},{"type":"Feature","properties":{"name":"sunchadi pasal","shop":"jewelry"},"geometry":{"type":"Point","coordinates":[85.1225424,27.6490963]}},{"type":"Feature","properties":{"name":"surya sun chadi pasal","shop":"jewelry"},"geometry":{"type":"Point","coordinates":[85.122813,27.6493771]}},{"type":"Feature","properties":{"building":"yes"},"geometry":{"type":"Point","coordinates":[85.1141404,27.6600265]}}]}